ONEWEB-0363             
1 49289U 21090L   26004.30269272 -.00000238  00000+0 -61738-3 0  9999
2 49289  87.9226 307.1265 0002070  81.7479 278.3890 13.20771708208673
ONEWEB-0364             
1 49290U 21090M   26004.26481652 -.00000043  00000+0 -13807-3 0  9992
2 49290  87.9216 307.1554 0001836  79.1408 280.9932 13.20771993209805
ONEWEB-0365             
1 49291U 21090N   26003.96754317  .00000001  00000+0 -30703-4 0  9998
2 49291  87.9226 337.6289 0001668  80.1677 279.9644 13.19726010204769
ONEWEB-0366             
1 49292U 21090P   26004.24981547  .00000330  00000+0  85675-3 0  9999
2 49292  87.9006 322.3828 0001731  80.5417 279.5908 13.14504622206021
ONEWEB-0367             
1 49293U 21090Q   26004.30112368 -.00000109  00000+0 -29895-3 0  9992
2 49293  87.9227 307.1269 0001575  71.7883 288.3422 13.20772659208195
ONEWEB-0368             
1 49294U 21090R   26004.27429638  .00000098  00000+0  20936-3 0  9992
2 49294  87.9219 307.1594 0002428  66.1228 294.0160 13.20772914209342
ONEWEB-0369             
1 49295U 21090S   26003.96278399 -.00000301  00000+0 -78469-3 0  9997
2 49295  87.9216 337.6541 0001763  80.2029 279.9302 13.19724782204755
ONEWEB-0370             
1 49296U 21090T   26004.23483187 -.00000001  00000+0 -34039-4 0  9995
2 49296  87.9226 307.1428 0001428  82.8432 277.2864 13.20771701208222
